KUIPER-00210            
1 67146U 25301P   25359.25004630  .00019917  00000+0  60275-3 0  9998
2 67146  51.8597  64.8907 0010741 147.5545  74.3123 15.34128865  2453
KUIPER-00221            
1 67147U 25301Q   25359.25004630  .00023034  00000+0  66219-3 0  9998
2 67147  51.8716  64.7837 0005239 111.6110 161.4701 15.35694805  1771
KUIPER-00232            
1 67148U 25301R   25359.25004630  .00022708  00000+0  63301-3 0  9995
2 67148  51.8742  64.7119 0001558  57.9160 247.7611 15.36675501  2166
KUIPER-00241            
1 67149U 25301S   25359.25004630  .00021472  00000+0  60822-3 0  9998
2 67149  51.8740  64.7424 0002960  99.8157 190.4344 15.36209293  2611
KUIPER-00245            
1 67150U 25301T   25359.25004630  .00023909  00000+0  68892-3 0  9992
2 67150  51.8723  64.7887 0005245 119.5883 150.5190 15.35600111  1777
KUIPER-00246            
1 67151U 25301U   25359.25004630  .00024721  00000+0  70550-3 0  9990
2 67151  51.8733  64.7645 0003977 107.7596 173.0791 15.35886061  2308
KUIPER-00247            
1 67152U 25301V   25359.25004630  .00019631  00000+0  59763-3 0  9998
2 67152  51.8625  64.9029 0011381 150.7305  65.3858 15.33944667  2202
KUIPER-00248            
1 67153U 25301W   25359.25004630  .00022521  00000+0  66963-3 0  9991
2 67153  51.8672  64.8588 0008850 138.2706  99.3807 15.34625406  2453
KUIPER-00249            
1 67154U 25301X   25359.25004630  .00024212  00000+0  71577-3 0  9998
2 67154  51.8648  64.8450 0007823 135.1720 109.4705 15.34770737  2139
KUIPER-00250            
1 67155U 25301Y   25359.25004630  .00022834  00000+0  66484-3 0  9998
2 67155  51.8710  64.8110 0006351 126.5434 133.4544 15.35295142  2315
KUIPER-00251            
1 67156U 25301Z   25359.25004630  .00022803  00000+0  67586-3 0  9999
2 67156  51.8660  64.8531 0008907 133.7251 106.8190 15.34717111  2475
KUIPER-00252            
1 67157U 25301AA  25359.25004630  .00020291  00000+0  61083-3 0  9995
2 67157  51.8650  64.8812 0010192 145.4872  81.3391 15.34289045  2161
