CCSDS_OMM_VERS = 2.0
CREATION_DATE  = 
ORIGINATOR     = 

OBJECT_NAME    = KUIPER-00210
OBJECT_ID      = 2025-301P
CENTER_NAME    = EARTH
REF_FRAME      = TEME
TIME_SYSTEM    = UTC
MEAN_ELEMENT_THEORY = SGP/SGP4

EPOCH          = 2025-12-25T06:00:04.000320
MEAN_MOTION    = 15.34128865
ECCENTRICITY   = .00107414
INCLINATION    = 51.8597
RA_OF_ASC_NODE = 64.8907
ARG_OF_PERICENTER = 147.5545
MEAN_ANOMALY   = 74.3123

EPHEMERIS_TYPE = 0
CLASSIFICATION_TYPE = U
NORAD_CAT_ID   = 67146
ELEMENT_SET_NO = 999
REV_AT_EPOCH   = 245
BSTAR          = .60275365E-3
MEAN_MOTION_DOT = .19917E-3
MEAN_MOTION_DDOT = 0

CCSDS_OMM_VERS = 2.0
CREATION_DATE  = 
ORIGINATOR     = 

OBJECT_NAME    = KUIPER-00221
OBJECT_ID      = 2025-301Q
CENTER_NAME    = EARTH
REF_FRAME      = TEME
TIME_SYSTEM    = UTC
MEAN_ELEMENT_THEORY = SGP/SGP4

EPOCH          = 2025-12-25T06:00:04.000320
MEAN_MOTION    = 15.35694805
ECCENTRICITY   = .0005239
INCLINATION    = 51.8716
RA_OF_ASC_NODE = 64.7837
ARG_OF_PERICENTER = 111.6110
MEAN_ANOMALY   = 161.4701

EPHEMERIS_TYPE = 0
CLASSIFICATION_TYPE = U
NORAD_CAT_ID   = 67147
ELEMENT_SET_NO = 999
REV_AT_EPOCH   = 177
BSTAR          = .66218911E-3
MEAN_MOTION_DOT = .23034E-3
MEAN_MOTION_DDOT = 0

CCSDS_OMM_VERS = 2.0
CREATION_DATE  = 
ORIGINATOR     = 

OBJECT_NAME    = KUIPER-00232
OBJECT_ID      = 2025-301R
CENTER_NAME    = EARTH
REF_FRAME      = TEME
TIME_SYSTEM    = UTC
MEAN_ELEMENT_THEORY = SGP/SGP4

EPOCH          = 2025-12-25T06:00:04.000320
MEAN_MOTION    = 15.36675501
ECCENTRICITY   = .00015589
INCLINATION    = 51.8742
RA_OF_ASC_NODE = 64.7119
ARG_OF_PERICENTER = 57.9160
MEAN_ANOMALY   = 247.7611

EPHEMERIS_TYPE = 0
CLASSIFICATION_TYPE = U
NORAD_CAT_ID   = 67148
ELEMENT_SET_NO = 999
REV_AT_EPOCH   = 216
BSTAR          = .63300899E-3
MEAN_MOTION_DOT = .22708E-3
MEAN_MOTION_DDOT = 0

CCSDS_OMM_VERS = 2.0
CREATION_DATE  = 
ORIGINATOR     = 

OBJECT_NAME    = KUIPER-00241
OBJECT_ID      = 2025-301S
CENTER_NAME    = EARTH
REF_FRAME      = TEME
TIME_SYSTEM    = UTC
MEAN_ELEMENT_THEORY = SGP/SGP4

EPOCH          = 2025-12-25T06:00:04.000320
MEAN_MOTION    = 15.36209293
ECCENTRICITY   = .00029605
INCLINATION    = 51.8740
RA_OF_ASC_NODE = 64.7424
ARG_OF_PERICENTER = 99.8157
MEAN_ANOMALY   = 190.4344

EPHEMERIS_TYPE = 0
CLASSIFICATION_TYPE = U
NORAD_CAT_ID   = 67149
ELEMENT_SET_NO = 999
REV_AT_EPOCH   = 261
BSTAR          = .60821873E-3
MEAN_MOTION_DOT = .21472E-3
MEAN_MOTION_DDOT = 0

CCSDS_OMM_VERS = 2.0
CREATION_DATE  = 
ORIGINATOR     = 

OBJECT_NAME    = KUIPER-00245
OBJECT_ID      = 2025-301T
CENTER_NAME    = EARTH
REF_FRAME      = TEME
TIME_SYSTEM    = UTC
MEAN_ELEMENT_THEORY = SGP/SGP4

EPOCH          = 2025-12-25T06:00:04.000320
MEAN_MOTION    = 15.35600111
ECCENTRICITY   = .00052455
INCLINATION    = 51.8723
RA_OF_ASC_NODE = 64.7887
ARG_OF_PERICENTER = 119.5883
MEAN_ANOMALY   = 150.5190

EPHEMERIS_TYPE = 0
CLASSIFICATION_TYPE = U
NORAD_CAT_ID   = 67150
ELEMENT_SET_NO = 999
REV_AT_EPOCH   = 177
BSTAR          = .68891909E-3
MEAN_MOTION_DOT = .23909E-3
MEAN_MOTION_DDOT = 0

CCSDS_OMM_VERS = 2.0
CREATION_DATE  = 
ORIGINATOR     = 

OBJECT_NAME    = KUIPER-00246
OBJECT_ID      = 2025-301U
CENTER_NAME    = EARTH
REF_FRAME      = TEME
TIME_SYSTEM    = UTC
MEAN_ELEMENT_THEORY = SGP/SGP4

EPOCH          = 2025-12-25T06:00:04.000320
MEAN_MOTION    = 15.35886061
ECCENTRICITY   = .00039779
INCLINATION    = 51.8733
RA_OF_ASC_NODE = 64.7645
ARG_OF_PERICENTER = 107.7596
MEAN_ANOMALY   = 173.0791

EPHEMERIS_TYPE = 0
CLASSIFICATION_TYPE = U
NORAD_CAT_ID   = 67151
ELEMENT_SET_NO = 999
REV_AT_EPOCH   = 230
BSTAR          = .705502E-3
MEAN_MOTION_DOT = .24721E-3
MEAN_MOTION_DDOT = 0

CCSDS_OMM_VERS = 2.0
CREATION_DATE  = 
ORIGINATOR     = 

OBJECT_NAME    = KUIPER-00247
OBJECT_ID      = 2025-301V
CENTER_NAME    = EARTH
REF_FRAME      = TEME
TIME_SYSTEM    = UTC
MEAN_ELEMENT_THEORY = SGP/SGP4

EPOCH          = 2025-12-25T06:00:04.000320
MEAN_MOTION    = 15.33944667
ECCENTRICITY   = .00113819
INCLINATION    = 51.8625
RA_OF_ASC_NODE = 64.9029
ARG_OF_PERICENTER = 150.7305
MEAN_ANOMALY   = 65.3858

EPHEMERIS_TYPE = 0
CLASSIFICATION_TYPE = U
NORAD_CAT_ID   = 67152
ELEMENT_SET_NO = 999
REV_AT_EPOCH   = 220
BSTAR          = .59762693E-3
MEAN_MOTION_DOT = .19631E-3
MEAN_MOTION_DDOT = 0

CCSDS_OMM_VERS = 2.0
CREATION_DATE  = 
ORIGINATOR     = 

OBJECT_NAME    = KUIPER-00248
OBJECT_ID      = 2025-301W
CENTER_NAME    = EARTH
REF_FRAME      = TEME
TIME_SYSTEM    = UTC
MEAN_ELEMENT_THEORY = SGP/SGP4

EPOCH          = 2025-12-25T06:00:04.000320
MEAN_MOTION    = 15.34625406
ECCENTRICITY   = .00088509
INCLINATION    = 51.8672
RA_OF_ASC_NODE = 64.8588
ARG_OF_PERICENTER = 138.2706
MEAN_ANOMALY   = 99.3807

EPHEMERIS_TYPE = 0
CLASSIFICATION_TYPE = U
NORAD_CAT_ID   = 67153
ELEMENT_SET_NO = 999
REV_AT_EPOCH   = 245
BSTAR          = .66962912E-3
MEAN_MOTION_DOT = .22521E-3
MEAN_MOTION_DDOT = 0

CCSDS_OMM_VERS = 2.0
CREATION_DATE  = 
ORIGINATOR     = 

OBJECT_NAME    = KUIPER-00249
OBJECT_ID      = 2025-301X
CENTER_NAME    = EARTH
REF_FRAME      = TEME
TIME_SYSTEM    = UTC
MEAN_ELEMENT_THEORY = SGP/SGP4

EPOCH          = 2025-12-25T06:00:04.000320
MEAN_MOTION    = 15.34770737
ECCENTRICITY   = .00078234
INCLINATION    = 51.8648
RA_OF_ASC_NODE = 64.8450
ARG_OF_PERICENTER = 135.1720
MEAN_ANOMALY   = 109.4705

EPHEMERIS_TYPE = 0
CLASSIFICATION_TYPE = U
NORAD_CAT_ID   = 67154
ELEMENT_SET_NO = 999
REV_AT_EPOCH   = 213
BSTAR          = .71576841E-3
MEAN_MOTION_DOT = .24212E-3
MEAN_MOTION_DDOT = 0

CCSDS_OMM_VERS = 2.0
CREATION_DATE  = 
ORIGINATOR     = 

OBJECT_NAME    = KUIPER-00250
OBJECT_ID      = 2025-301Y
CENTER_NAME    = EARTH
REF_FRAME      = TEME
TIME_SYSTEM    = UTC
MEAN_ELEMENT_THEORY = SGP/SGP4

EPOCH          = 2025-12-25T06:00:04.000320
MEAN_MOTION    = 15.35295142
ECCENTRICITY   = .00063515
INCLINATION    = 51.8710
RA_OF_ASC_NODE = 64.8110
ARG_OF_PERICENTER = 126.5434
MEAN_ANOMALY   = 133.4544

EPHEMERIS_TYPE = 0
CLASSIFICATION_TYPE = U
NORAD_CAT_ID   = 67155
ELEMENT_SET_NO = 999
REV_AT_EPOCH   = 231
BSTAR          = .6648438E-3
MEAN_MOTION_DOT = .22834E-3
MEAN_MOTION_DDOT = 0

CCSDS_OMM_VERS = 2.0
CREATION_DATE  = 
ORIGINATOR     = 

OBJECT_NAME    = KUIPER-00251
OBJECT_ID      = 2025-301Z
CENTER_NAME    = EARTH
REF_FRAME      = TEME
TIME_SYSTEM    = UTC
MEAN_ELEMENT_THEORY = SGP/SGP4

EPOCH          = 2025-12-25T06:00:04.000320
MEAN_MOTION    = 15.34717111
ECCENTRICITY   = .00089076
INCLINATION    = 51.8660
RA_OF_ASC_NODE = 64.8531
ARG_OF_PERICENTER = 133.7251
MEAN_ANOMALY   = 106.8190

EPHEMERIS_TYPE = 0
CLASSIFICATION_TYPE = U
NORAD_CAT_ID   = 67156
ELEMENT_SET_NO = 999
REV_AT_EPOCH   = 247
BSTAR          = .67585695E-3
MEAN_MOTION_DOT = .22803E-3
MEAN_MOTION_DDOT = 0

CCSDS_OMM_VERS = 2.0
CREATION_DATE  = 
ORIGINATOR     = 

OBJECT_NAME    = KUIPER-00252
OBJECT_ID      = 2025-301AA
CENTER_NAME    = EARTH
REF_FRAME      = TEME
TIME_SYSTEM    = UTC
MEAN_ELEMENT_THEORY = SGP/SGP4

EPOCH          = 2025-12-25T06:00:04.000320
MEAN_MOTION    = 15.34289045
ECCENTRICITY   = .00101929
INCLINATION    = 51.8650
RA_OF_ASC_NODE = 64.8812
ARG_OF_PERICENTER = 145.4872
MEAN_ANOMALY   = 81.3391

EPHEMERIS_TYPE = 0
CLASSIFICATION_TYPE = U
NORAD_CAT_ID   = 67157
ELEMENT_SET_NO = 999
REV_AT_EPOCH   = 216
BSTAR          = .61083339E-3
MEAN_MOTION_DOT = .20291E-3
MEAN_MOTION_DDOT = 0

